IRIDIUM 33 DEB          
1 33876U 97051AV  17345.87107321  .00010985  00000-0  14492-2 0  9993
2 33876  86.1978 105.5538 0011525 171.6069 308.7219 14.79930483467475
